start=new Date('2023-04-24T00:00:00.000Z').valueOf();
sats=[{"EPOCH":"2023-04-23T18:27:21.809952","TLE_LINE2":"2 46147  53.0551 354.3831 0000600  95.0395 265.0663 15.06519766148925","ELEMENT_SET_NO":"999","REF_FRAME":"TEME","LAUNCH_DATE":"2020-08-18","COUNTRY_CODE":"US","RCS_SIZE":"LARGE","MEAN_ELEMENT_THEORY":"SGP4","REV_AT_EPOCH":"14892","TIME_SYSTEM":"UTC","MEAN_MOTION_DDOT":"0.0000000000000","FILE":"3892831","OBJECT_NAME":"STARLINK-1611","EPHEMERIS_TYPE":"0","INCLINATION":"53.0551","TLE_LINE1":"1 46147U 20057AG  23113.76900243  .00044189  00000-0  29574-2 0  9992","SITE":"AFETR","MEAN_ANOMALY":"265.0663","PERIAPSIS":"546.431","PERIOD":"95.585","MEAN_MOTION":"15.06519766","CLASSIFICATION_TYPE":"U","GP_ID":"230656205","MEAN_MOTION_DOT":"0.00044189","ARG_OF_PERICENTER":"95.0395","NORAD_CAT_ID":"46147","ECCENTRICITY":"0.00006000","CENTER_NAME":"EARTH","BSTAR":"0.00295740000000","OBJECT_TYPE":"PAYLOAD","APOAPSIS":"547.262","OBJECT_ID":"2020-057AG","DECAY_DATE":null,"SEMIMAJOR_AXIS":"6924.982","RA_OF_ASC_NODE":"354.3831"},{"REV_AT_EPOCH":"14796","TIME_SYSTEM":"UTC","MEAN_ELEMENT_THEORY":"SGP4","RCS_SIZE":"LARGE","LAUNCH_DATE":"2020-08-18","COUNTRY_CODE":"US","REF_FRAME":"TEME","ELEMENT_SET_NO":"999","TLE_LINE2":"2 46148  53.0541 333.7632 0001219  71.6648 288.4473 15.06458926147964","EPOCH":"2023-04-23T21:46:26.463936","SEMIMAJOR_AXIS":"6925.168","RA_OF_ASC_NODE":"333.7632","APOAPSIS":"547.877","OBJECT_TYPE":"PAYLOAD","OBJECT_ID":"2020-057AH","DECAY_DATE":null,"CENTER_NAME":"EARTH","ECCENTRICITY":"0.00012190","NORAD_CAT_ID":"46148","BSTAR":"0.00241020000000","GP_ID":"230656954","CLASSIFICATION_TYPE":"U","MEAN_MOTION_DOT":"0.00035859","ARG_OF_PERICENTER":"71.6648","PERIOD":"95.588","MEAN_MOTION":"15.06458926","MEAN_ANOMALY":"288.4473","INCLINATION":"53.0541","TLE_LINE1":"1 46148U 20057AH  23113.90725074  .00035859  00000-0  24102-2 0  9992","SITE":"AFETR","PERIAPSIS":"546.189","MEAN_MOTION_DDOT":"0.0000000000000","FILE":"3892831","OBJECT_NAME":"STARLINK-1616","EPHEMERIS_TYPE":"0"},{"APOAPSIS":"547.909","OBJECT_TYPE":"PAYLOAD","DECAY_DATE":null,"OBJECT_ID":"2020-057AJ","SEMIMAJOR_AXIS":"6925.207","RA_OF_ASC_NODE":"333.9888","CLASSIFICATION_TYPE":"U","GP_ID":"230657205","MEAN_MOTION_DOT":"0.00034808","ARG_OF_PERICENTER":"93.2570","NORAD_CAT_ID":"46149","ECCENTRICITY":"0.00012080","CENTER_NAME":"EARTH","BSTAR":"0.00234130000000","PERIOD":"95.589","MEAN_MOTION":"15.06446064","MEAN_MOTION_DDOT":"0.0000000000000","FILE":"3892831","EPHEMERIS_TYPE":"0","OBJECT_NAME":"STARLINK-1620","SITE":"AFETR","TLE_LINE1":"1 46149U 20057AJ  23113.85470307  .00034808  00000-0  23413-2 0  9990","INCLINATION":"53.0538","MEAN_ANOMALY":"266.8557","PERIAPSIS":"546.236","TIME_SYSTEM":"UTC","REV_AT_EPOCH":"14923","MEAN_ELEMENT_THEORY":"SGP4","COUNTRY_CODE":"US","LAUNCH_DATE":"2020-08-18","RCS_SIZE":"LARGE","TLE_LINE2":"2 46149  53.0538 333.9888 0001208  93.2570 266.8557 15.06446064149233","EPOCH":"2023-04-23T20:30:46.345248","ELEMENT_SET_NO":"999","REF_FRAME":"TEME"},{"SITE":"AFETR","TLE_LINE1":"1 46150U 20057AK  23113.71745091  .00018646  00000-0  12670-2 0  9997","INCLINATION":"53.0543","MEAN_ANOMALY":"266.8211","PERIAPSIS":"546.700","MEAN_MOTION_DDOT":"0.0000000000000","FILE":"3892831","OBJECT_NAME":"STARLINK-1629","EPHEMERIS_TYPE":"0","PERIOD":"95.592","MEAN_MOTION":"15.06409892","NORAD_CAT_ID":"46150","CENTER_NAME":"EARTH","ECCENTRICITY":"0.00006980","BSTAR":"0.00126700000000","CLASSIFICATION_TYPE":"U","GP_ID":"230657451","ARG_OF_PERICENTER":"93.2858","MEAN_MOTION_DOT":"0.00018646","SEMIMAJOR_AXIS":"6925.318","RA_OF_ASC_NODE":"354.6139","APOAPSIS":"547.667","OBJECT_TYPE":"PAYLOAD","OBJECT_ID":"2020-057AK","DECAY_DATE":null,"REF_FRAME":"TEME","TLE_LINE2":"2 46150  53.0543 354.6139 0000698  93.2858 266.8211 15.06409892147661","EPOCH":"2023-04-23T17:13:07.758624","ELEMENT_SET_NO":"999","RCS_SIZE":"LARGE","LAUNCH_DATE":"2020-08-18","COUNTRY_CODE":"US","MEAN_ELEMENT_THEORY":"SGP4","TIME_SYSTEM":"UTC","REV_AT_EPOCH":"14766"},{"LAUNCH_DATE":"2020-08-18","COUNTRY_CODE":"US","RCS_SIZE":"LARGE","ELEMENT_SET_NO":"999","EPOCH":"2023-04-23T16:38:37.170528","TLE_LINE2":"2 46151  53.0537 334.7252 0001127  62.3123 297.7980 15.06407509147939","REF_FRAME":"TEME","REV_AT_EPOCH":"14793","TIME_SYSTEM":"UTC","MEAN_ELEMENT_THEORY":"SGP4","MEAN_MOTION":"15.06407509","PERIOD":"95.592","FILE":"3892831","OBJECT_NAME":"STARLINK-1631","EPHEMERIS_TYPE":"0","MEAN_MOTION_DDOT":"0.0000000000000","PERIAPSIS":"546.410","MEAN_ANOMALY":"297.7980","TLE_LINE1":"1 46151U 20057AL  23113.69348577  .00015291  00000-0  10430-2 0  9998","SITE":"AFETR","INCLINATION":"53.0537","OBJECT_ID":"2020-057AL","DECAY_DATE":null,"APOAPSIS":"547.971","OBJECT_TYPE":"PAYLOAD","RA_OF_ASC_NODE":"334.7252","SEMIMAJOR_AXIS":"6925.326","ARG_OF_PERICENTER":"62.3123","MEAN_MOTION_DOT":"0.00015291","GP_ID":"230656705","CLASSIFICATION_TYPE":"U","BSTAR":"0.00104300000000","ECCENTRICITY":"0.00011270","CENTER_NAME":"EARTH","NORAD_CAT_ID":"46151"},{"MEAN_ELEMENT_THEORY":"SGP4","REV_AT_EPOCH":"14766","TIME_SYSTEM":"UTC","EPOCH":"2023-04-23T17:48:52.925472","TLE_LINE2":"2 46152  53.0547 354.4953 0000737  95.0308 265.0765 15.06464881147667","ELEMENT_SET_NO":"999","REF_FRAME":"TEME","LAUNCH_DATE":"2020-08-18","COUNTRY_CODE":"US","RCS_SIZE":"LARGE","CLASSIFICATION_TYPE":"U","GP_ID":"230656456","MEAN_MOTION_DOT":"0.00027817","ARG_OF_PERICENTER":"95.0308","NORAD_CAT_ID":"46152","ECCENTRICITY":"0.00007370","CENTER_NAME":"EARTH","BSTAR":"0.00187570000000","OBJECT_TYPE":"PAYLOAD","APOAPSIS":"547.525","OBJECT_ID":"2020-057AM","DECAY_DATE":null,"SEMIMAJOR_AXIS":"6925.150","RA_OF_ASC_NODE":"354.4953","MEAN_MOTION_DDOT":"0.0000000000000","OBJECT_NAME":"STARLINK-1634","FILE":"3892831","EPHEMERIS_TYPE":"0","SITE":"AFETR","TLE_LINE1":"1 46152U 20057AM  23113.74227923  .00027817  00000-0  18757-2 0  9993","INCLINATION":"53.0547","MEAN_ANOMALY":"265.0765","PERIAPSIS":"546.504","PERIOD":"95.588","MEAN_MOTION":"15.06464881"},{"COUNTRY_CODE":"US","LAUNCH_DATE":"2020-08-18","RCS_SIZE":"LARGE","TLE_LINE2":"2 46153  53.0543 334.6448 0000586 129.6300 230.4741 15.06421206147935","EPOCH":"2023-04-23T17:05:09.298752","ELEMENT_SET_NO":"999","REF_FRAME":"TEME","TIME_SYSTEM":"UTC","REV_AT_EPOCH":"14793","MEAN_ELEMENT_THEORY":"SGP4","MEAN_MOTION":"15.06421206","PERIOD":"95.591","EPHEMERIS_TYPE":"0","FILE":"3892831","OBJECT_NAME":"STARLINK-1636","MEAN_MOTION_DDOT":"0.0000000000000","PERIAPSIS":"546.743","INCLINATION":"53.0543","TLE_LINE1":"1 46153U 20057AN  23113.71191318  .00026973  00000-0  18217-2 0  9992","SITE":"AFETR","MEAN_ANOMALY":"230.4741","DECAY_DATE":null,"OBJECT_ID":"2020-057AN","OBJECT_TYPE":"PAYLOAD","APOAPSIS":"547.554","RA_OF_ASC_NODE":"334.6448","SEMIMAJOR_AXIS":"6925.284","MEAN_MOTION_DOT":"0.00026973","ARG_OF_PERICENTER":"129.6300","CLASSIFICATION_TYPE":"U","GP_ID":"230657706","BSTAR":"0.00182170000000","NORAD_CAT_ID":"46153","ECCENTRICITY":"0.00005860","CENTER_NAME":"EARTH"},{"MEAN_ELEMENT_THEORY":"SGP4","REV_AT_EPOCH":"14779","TIME_SYSTEM":"UTC","ELEMENT_SET_NO":"999","EPOCH":"2023-04-23T15:44:13.204032","TLE_LINE2":"2 46154  53.0547 344.8938 0001055  93.8656 266.2454 15.06429419147791","REF_FRAME":"TEME","LAUNCH_DATE":"2020-08-18","COUNTRY_CODE":"US","RCS_SIZE":"LARGE","ARG_OF_PERICENTER":"93.8656","MEAN_MOTION_DOT":"0.00023948","GP_ID":"230657952","CLASSIFICATION_TYPE":"U","BSTAR":"0.00161990000000","ECCENTRICITY":"0.00010550","CENTER_NAME":"EARTH","NORAD_CAT_ID":"46154","DECAY_DATE":null,"OBJECT_ID":"2020-057AP","OBJECT_TYPE":"PAYLOAD","APOAPSIS":"547.854","RA_OF_ASC_NODE":"344.8938","SEMIMAJOR_AXIS":"6925.258","OBJECT_NAME":"STARLINK-1642","FILE":"3892831","EPHEMERIS_TYPE":"0","MEAN_MOTION_DDOT":"0.0000000000000","PERIAPSIS":"546.393","MEAN_ANOMALY":"266.2454","SITE":"AFETR","TLE_LINE1":"1 46154U 20057AP  23113.65570838  .00023948  00000-0  16199-2 0  9990","INCLINATION":"53.0547","MEAN_MOTION":"15.06429419","PERIOD":"95.590"},{"FILE":"3892831","EPHEMERIS_TYPE":"0","OBJECT_NAME":"STARLINK-1667","MEAN_MOTION_DDOT":"0.0000000000000","PERIAPSIS":"546.796","MEAN_ANOMALY":"233.4896","TLE_LINE1":"1 46155U 20057AQ  23113.81327591  .00033396  00000-0  22491-2 0  9995","INCLINATION":"53.0535","SITE":"AFETR","MEAN_MOTION":"15.06420201","PERIOD":"95.591","MEAN_MOTION_DOT":"0.00033396","ARG_OF_PERICENTER":"126.6140","GP_ID":"230656206","CLASSIFICATION_TYPE":"U","BSTAR":"0.00224910000000","ECCENTRICITY":"0.00005130","CENTER_NAME":"EARTH","NORAD_CAT_ID":"46155","DECAY_DATE":null,"OBJECT_ID":"2020-057AQ","APOAPSIS":"547.507","OBJECT_TYPE":"PAYLOAD","RA_OF_ASC_NODE":"314.1840","SEMIMAJOR_AXIS":"6925.287","ELEMENT_SET_NO":"999","EPOCH":"2023-04-23T19:31:07.038624","TLE_LINE2":"2 46155  53.0535 314.1840 0000513 126.6140 233.4896 15.06420201149475","REF_FRAME":"TEME","LAUNCH_DATE":"2020-08-18","COUNTRY_CODE":"US","RCS_SIZE":"LARGE","MEAN_ELEMENT_THEORY":"SGP4","REV_AT_EPOCH":"14947","TIME_SYSTEM":"UTC"},{"MEAN_MOTION":"15.06417516","PERIOD":"95.591","FILE":"3892831","EPHEMERIS_TYPE":"0","OBJECT_NAME":"STARLINK-1545","MEAN_MOTION_DDOT":"0.0000000000000","PERIAPSIS":"546.507","MEAN_ANOMALY":"265.2660","INCLINATION":"53.0537","TLE_LINE1":"1 46156U 20057AR  23113.73771793  .00015701  00000-0  10701-2 0  9995","SITE":"AFETR","DECAY_DATE":null,"OBJECT_ID":"2020-057AR","APOAPSIS":"547.813","OBJECT_TYPE":"PAYLOAD","RA_OF_ASC_NODE":"334.5235","SEMIMAJOR_AXIS":"6925.295","MEAN_MOTION_DOT":"0.00015701","ARG_OF_PERICENTER":"94.8437","GP_ID":"230656955","CLASSIFICATION_TYPE":"U","BSTAR":"0.00107010000000","CENTER_NAME":"EARTH","ECCENTRICITY":"0.00009430","NORAD_CAT_ID":"46156","COUNTRY_CODE":"US","LAUNCH_DATE":"2020-08-18","RCS_SIZE":"LARGE","ELEMENT_SET_NO":"999","EPOCH":"2023-04-23T17:42:18.829152","TLE_LINE2":"2 46156  53.0537 334.5235 0000943  94.8437 265.2660 15.06417516149190","REF_FRAME":"TEME","REV_AT_EPOCH":"14919","TIME_SYSTEM":"UTC","MEAN_ELEMENT_THEORY":"SGP4"}];
